STARLINK-36138          
1 67030U 25294A   26049.83335647  .00015677  00000+0  56353-3 0  9998
2 67030  43.0004 144.6897 0001280 272.2973 100.3947 15.28413269  5887
STARLINK-36150          
1 67031U 25294B   26049.35251903  .00038149  00000+0  91504-3 0  9994
2 67031  42.9995 147.1261 0001860 185.4604 174.6232 15.40729255 11841
STARLINK-36131          
1 67032U 25294C   26049.29440169  .00048889  00000+0  11680-2 0  9990
2 67032  43.0001 147.5542 0001041 150.7844 209.3071 15.40754215 11830
STARLINK-36137          
1 67033U 25294D   26049.55148806  .00040641  00000+0  97405-3 0  9991
2 67033  42.9980 146.0455 0001108 278.7860  81.2871 15.40729477 11876
STARLINK-36140          
1 67034U 25294E   26049.58336806  .00018147  00000+0  66782-3 0  9994
2 67034  43.0011 146.2938 0001192 306.1214  51.1097 15.27557044  5901
STARLINK-36085          
1 67035U 25294F   26049.83335647  .00010825  00000+0  40233-3 0  9993
2 67035  43.0014 144.9091 0001459 271.0503   8.3948 15.27579723  5881
STARLINK-36125          
1 67036U 25294G   26049.55697071  .00020048  00000+0  71721-3 0  9999
2 67036  42.9991 146.0721 0001400 220.0825 139.9924 15.28432393 11877
STARLINK-35732          
1 67037U 25294H   26049.70951222  .00026956  00000+0  98487-3 0  9990
2 67037  43.0009 145.5031 0001647 263.1772  96.8892 15.27601148 11892
STARLINK-35775          
1 67038U 25294J   26049.83335647 -.01278853  00000+0 -49052-1 0  9992
2 67038  42.9999 144.3494 0002228 216.3676 295.5855 15.28714653  5839
STARLINK-35705          
1 67039U 25294K   26049.74534089  .00022226  00000+0  81434-3 0  9994
2 67039  43.0047 144.9133 0003592 291.4745  68.5723 15.27594299 11906
STARLINK-35786          
1 67040U 25294L   26049.83335647  .00012371  00000+0  45822-3 0  9996
2 67040  43.0006 144.7770 0001877 278.0493  57.9909 15.27585575  5787
STARLINK-35765          
1 67041U 25294M   26049.30305186 -.00098557  00000+0 -36129-2 0  9995
2 67041  43.0043 147.6148 0001331 289.8632  70.2076 15.27642930 11835
STARLINK-35773          
1 67042U 25294N   26049.83335647  .00028111  00000+0  10275-2 0  9990
2 67042  43.0000 144.5884 0001250 298.7568 115.1201 15.27567728  5731
STARLINK-35901          
1 67043U 25294P   26049.57035725  .00020439  00000+0  73103-3 0  9991
2 67043  43.0029 146.1786 0002666 263.0433  97.0116 15.28429111 11879
STARLINK-35884          
1 67044U 25294Q   26049.74372670  .00047502  00000+0  11359-2 0  9998
2 67044  43.0032 144.9050 0002414 256.9960 103.0627 15.40738384 11909
STARLINK-35891          
1 67045U 25294R   26049.58259198  .00028102  00000+0  10262-2 0  9997
2 67045  43.0004 146.2700 0001814 249.2035 110.8622 15.27601952 11879
