[{"OBJECT_NAME":"STARLINK-36138","OBJECT_ID":"2025-294A","EPOCH":"2026-02-18T20:00:01.999008","MEAN_MOTION":15.28413269,"ECCENTRICITY":0.000128,"INCLINATION":43.0004,"RA_OF_ASC_NODE":144.6897,"ARG_OF_PERICENTER":272.2973,"MEAN_ANOMALY":100.3947,"EPHEMERIS_TYPE":0,"CLASSIFICATION_TYPE":"U","NORAD_CAT_ID":67030,"ELEMENT_SET_NO":999,"REV_AT_EPOCH":588,"BSTAR":0.00056353,"MEAN_MOTION_DOT":0.00015677,"MEAN_MOTION_DDOT":0},{"OBJECT_NAME":"STARLINK-36150","OBJECT_ID":"2025-294B","EPOCH":"2026-02-18T08:27:37.644192","MEAN_MOTION":15.40729255,"ECCENTRICITY":0.000186,"INCLINATION":42.9995,"RA_OF_ASC_NODE":147.1261,"ARG_OF_PERICENTER":185.4604,"MEAN_ANOMALY":174.6232,"EPHEMERIS_TYPE":0,"CLASSIFICATION_TYPE":"U","NORAD_CAT_ID":67031,"ELEMENT_SET_NO":999,"REV_AT_EPOCH":1184,"BSTAR":0.00091504,"MEAN_MOTION_DOT":0.00038149,"MEAN_MOTION_DDOT":0},{"OBJECT_NAME":"STARLINK-36131","OBJECT_ID":"2025-294C","EPOCH":"2026-02-18T07:03:56.306016","MEAN_MOTION":15.40754215,"ECCENTRICITY":0.0001041,"INCLINATION":43.0001,"RA_OF_ASC_NODE":147.5542,"ARG_OF_PERICENTER":150.7844,"MEAN_ANOMALY":209.3071,"EPHEMERIS_TYPE":0,"CLASSIFICATION_TYPE":"U","NORAD_CAT_ID":67032,"ELEMENT_SET_NO":999,"REV_AT_EPOCH":1183,"BSTAR":0.001168,"MEAN_MOTION_DOT":0.00048889,"MEAN_MOTION_DDOT":0},{"OBJECT_NAME":"STARLINK-36137","OBJECT_ID":"2025-294D","EPOCH":"2026-02-18T13:14:08.568384","MEAN_MOTION":15.40729477,"ECCENTRICITY":0.0001108,"INCLINATION":42.998,"RA_OF_ASC_NODE":146.0455,"ARG_OF_PERICENTER":278.786,"MEAN_ANOMALY":81.2871,"EPHEMERIS_TYPE":0,"CLASSIFICATION_TYPE":"U","NORAD_CAT_ID":67033,"ELEMENT_SET_NO":999,"REV_AT_EPOCH":1187,"BSTAR":0.00097405,"MEAN_MOTION_DOT":0.00040641,"MEAN_MOTION_DDOT":0},{"OBJECT_NAME":"STARLINK-36140","OBJECT_ID":"2025-294E","EPOCH":"2026-02-18T14:00:03.000384","MEAN_MOTION":15.27557044,"ECCENTRICITY":0.00011922,"INCLINATION":43.0011,"RA_OF_ASC_NODE":146.2938,"ARG_OF_PERICENTER":306.1214,"MEAN_ANOMALY":51.1097,"EPHEMERIS_TYPE":0,"CLASSIFICATION_TYPE":"U","NORAD_CAT_ID":67034,"ELEMENT_SET_NO":999,"REV_AT_EPOCH":590,"BSTAR":0.00066781758,"MEAN_MOTION_DOT":0.00018147,"MEAN_MOTION_DDOT":0},{"OBJECT_NAME":"STARLINK-36085","OBJECT_ID":"2025-294F","EPOCH":"2026-02-18T20:00:01.999008","MEAN_MOTION":15.27579723,"ECCENTRICITY":0.0001459,"INCLINATION":43.0014,"RA_OF_ASC_NODE":144.9091,"ARG_OF_PERICENTER":271.0503,"MEAN_ANOMALY":8.3948,"EPHEMERIS_TYPE":0,"CLASSIFICATION_TYPE":"U","NORAD_CAT_ID":67035,"ELEMENT_SET_NO":999,"REV_AT_EPOCH":588,"BSTAR":0.00040233,"MEAN_MOTION_DOT":0.00010825,"MEAN_MOTION_DDOT":0},{"OBJECT_NAME":"STARLINK-36125","OBJECT_ID":"2025-294G","EPOCH":"2026-02-18T13:22:02.269344","MEAN_MOTION":15.28432393,"ECCENTRICITY":0.00014,"INCLINATION":42.9991,"RA_OF_ASC_NODE":146.0721,"ARG_OF_PERICENTER":220.0825,"MEAN_ANOMALY":139.9924,"EPHEMERIS_TYPE":0,"CLASSIFICATION_TYPE":"U","NORAD_CAT_ID":67036,"ELEMENT_SET_NO":999,"REV_AT_EPOCH":1187,"BSTAR":0.00071721,"MEAN_MOTION_DOT":0.00020048,"MEAN_MOTION_DDOT":0},{"OBJECT_NAME":"STARLINK-35732","OBJECT_ID":"2025-294H","EPOCH":"2026-02-18T17:01:41.855808","MEAN_MOTION":15.27601148,"ECCENTRICITY":0.0001647,"INCLINATION":43.0009,"RA_OF_ASC_NODE":145.5031,"ARG_OF_PERICENTER":263.1772,"MEAN_ANOMALY":96.8892,"EPHEMERIS_TYPE":0,"CLASSIFICATION_TYPE":"U","NORAD_CAT_ID":67037,"ELEMENT_SET_NO":999,"REV_AT_EPOCH":1189,"BSTAR":0.00098487,"MEAN_MOTION_DOT":0.00026956,"MEAN_MOTION_DDOT":0},{"OBJECT_NAME":"STARLINK-35775","OBJECT_ID":"2025-294J","EPOCH":"2026-02-18T20:00:01.999008","MEAN_MOTION":15.28714653,"ECCENTRICITY":0.0002228,"INCLINATION":42.9999,"RA_OF_ASC_NODE":144.3494,"ARG_OF_PERICENTER":216.3676,"MEAN_ANOMALY":295.5855,"EPHEMERIS_TYPE":0,"CLASSIFICATION_TYPE":"U","NORAD_CAT_ID":67038,"ELEMENT_SET_NO":999,"REV_AT_EPOCH":583,"BSTAR":-0.049052,"MEAN_MOTION_DOT":-0.01278853,"MEAN_MOTION_DDOT":0},{"OBJECT_NAME":"STARLINK-35705","OBJECT_ID":"2025-294K","EPOCH":"2026-02-18T17:53:17.452896","MEAN_MOTION":15.27594299,"ECCENTRICITY":0.0003592,"INCLINATION":43.0047,"RA_OF_ASC_NODE":144.9133,"ARG_OF_PERICENTER":291.4745,"MEAN_ANOMALY":68.5723,"EPHEMERIS_TYPE":0,"CLASSIFICATION_TYPE":"U","NORAD_CAT_ID":67039,"ELEMENT_SET_NO":999,"REV_AT_EPOCH":1190,"BSTAR":0.00081434,"MEAN_MOTION_DOT":0.00022226,"MEAN_MOTION_DDOT":0},{"OBJECT_NAME":"STARLINK-35786","OBJECT_ID":"2025-294L","EPOCH":"2026-02-18T20:00:01.999008","MEAN_MOTION":15.27585575,"ECCENTRICITY":0.0001877,"INCLINATION":43.0006,"RA_OF_ASC_NODE":144.777,"ARG_OF_PERICENTER":278.0493,"MEAN_ANOMALY":57.9909,"EPHEMERIS_TYPE":0,"CLASSIFICATION_TYPE":"U","NORAD_CAT_ID":67040,"ELEMENT_SET_NO":999,"REV_AT_EPOCH":578,"BSTAR":0.00045822,"MEAN_MOTION_DOT":0.00012371,"MEAN_MOTION_DDOT":0},{"OBJECT_NAME":"STARLINK-35765","OBJECT_ID":"2025-294M","EPOCH":"2026-02-18T07:16:23.680704","MEAN_MOTION":15.2764293,"ECCENTRICITY":0.0001331,"INCLINATION":43.0043,"RA_OF_ASC_NODE":147.6148,"ARG_OF_PERICENTER":289.8632,"MEAN_ANOMALY":70.2076,"EPHEMERIS_TYPE":0,"CLASSIFICATION_TYPE":"U","NORAD_CAT_ID":67041,"ELEMENT_SET_NO":999,"REV_AT_EPOCH":1183,"BSTAR":-0.0036129,"MEAN_MOTION_DOT":-0.00098557,"MEAN_MOTION_DDOT":0},{"OBJECT_NAME":"STARLINK-35773","OBJECT_ID":"2025-294N","EPOCH":"2026-02-18T20:00:01.999008","MEAN_MOTION":15.27567728,"ECCENTRICITY":0.000125,"INCLINATION":43,"RA_OF_ASC_NODE":144.5884,"ARG_OF_PERICENTER":298.7568,"MEAN_ANOMALY":115.1201,"EPHEMERIS_TYPE":0,"CLASSIFICATION_TYPE":"U","NORAD_CAT_ID":67042,"ELEMENT_SET_NO":999,"REV_AT_EPOCH":573,"BSTAR":0.0010275,"MEAN_MOTION_DOT":0.00028111,"MEAN_MOTION_DDOT":0},{"OBJECT_NAME":"STARLINK-35901","OBJECT_ID":"2025-294P","EPOCH":"2026-02-18T13:41:18.866400","MEAN_MOTION":15.28429111,"ECCENTRICITY":0.0002666,"INCLINATION":43.0029,"RA_OF_ASC_NODE":146.1786,"ARG_OF_PERICENTER":263.0433,"MEAN_ANOMALY":97.0116,"EPHEMERIS_TYPE":0,"CLASSIFICATION_TYPE":"U","NORAD_CAT_ID":67043,"ELEMENT_SET_NO":999,"REV_AT_EPOCH":1187,"BSTAR":0.00073103,"MEAN_MOTION_DOT":0.00020439,"MEAN_MOTION_DDOT":0},{"OBJECT_NAME":"STARLINK-35884","OBJECT_ID":"2025-294Q","EPOCH":"2026-02-18T17:50:57.986880","MEAN_MOTION":15.40738384,"ECCENTRICITY":0.0002414,"INCLINATION":43.0032,"RA_OF_ASC_NODE":144.905,"ARG_OF_PERICENTER":256.996,"MEAN_ANOMALY":103.0627,"EPHEMERIS_TYPE":0,"CLASSIFICATION_TYPE":"U","NORAD_CAT_ID":67044,"ELEMENT_SET_NO":999,"REV_AT_EPOCH":1190,"BSTAR":0.0011359,"MEAN_MOTION_DOT":0.00047502,"MEAN_MOTION_DDOT":0},{"OBJECT_NAME":"STARLINK-35891","OBJECT_ID":"2025-294R","EPOCH":"2026-02-18T13:58:55.947072","MEAN_MOTION":15.27601952,"ECCENTRICITY":0.0001814,"INCLINATION":43.0004,"RA_OF_ASC_NODE":146.27,"ARG_OF_PERICENTER":249.2035,"MEAN_ANOMALY":110.8622,"EPHEMERIS_TYPE":0,"CLASSIFICATION_TYPE":"U","NORAD_CAT_ID":67045,"ELEMENT_SET_NO":999,"REV_AT_EPOCH":1187,"BSTAR":0.0010262,"MEAN_MOTION_DOT":0.00028102,"MEAN_MOTION_DDOT":0}]
